{
"type": "FeatureCollection",
"name": "boundary",
"crs": { "type": "name", "properties": { "name": "urn:ogc:def:crs:OGC:1.3:CRS84" } },
"features": [
{ "type": "Feature", "properties": { "bbox_west": 106.6950078, "bbox_south": 10.767227, "bbox_east": 106.7151954, "bbox_north": 10.792692, "place_id": 257057392, "osm_type": "relation", "osm_id": 19260504, "lat": 10.7798356, "lon": 106.7031155, "class": "boundary", "type": "administrative", "place_rank": 12, "importance": 0.38345178764272952, "addresstype": "suburb", "name": "Saigon", "display_name": "Saigon, Thủ Đức, Ho Chi Minh City, 71006, Vietnam", "relation_id": "19260504" }, "geometry": { "type": "Polygon", "coordinates": [ [ [ 106.6950078, 10.77958 ], [ 106.6990924, 10.7758322 ], [ 106.6995952, 10.7746588 ], [ 106.7008113, 10.7718214 ], [ 106.7011693, 10.7709753 ], [ 106.7019548, 10.7691477 ], [ 106.7027803, 10.767227 ], [ 106.7035693, 10.7680314 ], [ 106.7036651, 10.7680873 ], [ 106.7038639, 10.7681835 ], [ 106.7044202, 10.7684069 ], [ 106.7052267, 10.7687638 ], [ 106.7056291, 10.7689242 ], [ 106.7060486, 10.7690684 ], [ 106.7082991, 10.7697601 ], [ 106.7081934, 10.7701579 ], [ 106.7081291, 10.7704852 ], [ 106.7081041, 10.7706501 ], [ 106.7080696, 10.7710626 ], [ 106.7080204, 10.771889 ], [ 106.7080073, 10.7722411 ], [ 106.7079956, 10.7729456 ], [ 106.7080071, 10.7733719 ], [ 106.7080569, 10.7742841 ], [ 106.708136, 10.7751802 ], [ 106.7081897, 10.7756075 ], [ 106.70829, 10.7761973 ], [ 106.7084479, 10.7769206 ], [ 106.7085436, 10.7772914 ], [ 106.7086489, 10.7776597 ], [ 106.7087636, 10.7780253 ], [ 106.7088877, 10.7783879 ], [ 106.7091297, 10.7790239 ], [ 106.7092598, 10.7793384 ], [ 106.7094989, 10.7798731 ], [ 106.7095616, 10.7800089 ], [ 106.7097352, 10.7803638 ], [ 106.710106, 10.7810618 ], [ 106.7103796, 10.7815073 ], [ 106.7105259, 10.7817241 ], [ 106.710837, 10.7821452 ], [ 106.7111788, 10.7825562 ], [ 106.7113623, 10.7827581 ], [ 106.711747, 10.7831456 ], [ 106.7121543, 10.7835101 ], [ 106.7126629, 10.7839097 ], [ 106.7131932, 10.784281 ], [ 106.7134659, 10.7844557 ], [ 106.7137574, 10.784631 ], [ 106.7140538, 10.7847979 ], [ 106.7143551, 10.7849562 ], [ 106.714661, 10.7851059 ], [ 106.7151954, 10.7853396 ], [ 106.7151363, 10.7854298 ], [ 106.7150732, 10.7855174 ], [ 106.7149453, 10.7856912 ], [ 106.7148118, 10.785861 ], [ 106.7146728, 10.7860264 ], [ 106.7145285, 10.7861874 ], [ 106.714379, 10.7863438 ], [ 106.7142086, 10.7865104 ], [ 106.7140324, 10.7866711 ], [ 106.713945, 10.7867453 ], [ 106.7138505, 10.7868255 ], [ 106.7136632, 10.7869735 ], [ 106.7134707, 10.7871149 ], [ 106.7132733, 10.7872496 ], [ 106.7128377, 10.7874826 ], [ 106.7123839, 10.7876501 ], [ 106.7118759, 10.7877139 ], [ 106.7113755, 10.787694 ], [ 106.7104274, 10.78756 ], [ 106.7100891, 10.7875209 ], [ 106.7097488, 10.7875051 ], [ 106.7094406, 10.787511 ], [ 106.7092099, 10.7875365 ], [ 106.7089703, 10.7876077 ], [ 106.708727, 10.7877518 ], [ 106.708266, 10.7881485 ], [ 106.7079512, 10.7885031 ], [ 106.7077387, 10.7887963 ], [ 106.7076565, 10.7889375 ], [ 106.707618, 10.7890035 ], [ 106.7075247, 10.7892194 ], [ 106.707287, 10.7900121 ], [ 106.7070436, 10.7907099 ], [ 106.7069502, 10.7909776 ], [ 106.7068481, 10.7911877 ], [ 106.7067238, 10.7913608 ], [ 106.7065674, 10.7915009 ], [ 106.7063782, 10.7916535 ], [ 106.706107, 10.7918405 ], [ 106.7058508, 10.791992 ], [ 106.7055456, 10.7921198 ], [ 106.7051212, 10.7922677 ], [ 106.704941, 10.792325 ], [ 106.704088, 10.7925643 ], [ 106.7035701, 10.792692 ], [ 106.7019166, 10.7909391 ], [ 106.7015225, 10.7905213 ], [ 106.6995942, 10.7884806 ], [ 106.6959855, 10.7846839 ], [ 106.6970435, 10.7838172 ], [ 106.6981274, 10.7828849 ], [ 106.6950078, 10.77958 ] ] ] } },
{ "type": "Feature", "properties": { "bbox_west": 106.6812982, "bbox_south": 10.7736226, "bbox_east": 106.6981274, "bbox_north": 10.7925061, "place_id": 257049520, "osm_type": "relation", "osm_id": 19260546, "lat": 10.7824046, "lon": 106.6895335, "class": "boundary", "type": "administrative", "place_rank": 12, "importance": 0.35470330832359498, "addresstype": "suburb", "name": "Phường Xuân Hòa", "display_name": "Phường Xuân Hòa, Thủ Đức, Ho Chi Minh City, 70001, Vietnam", "relation_id": "19260546" }, "geometry": { "type": "Polygon", "coordinates": [ [ [ 106.6812982, 10.7859266 ], [ 106.6827644, 10.7850948 ], [ 106.6829474, 10.7849967 ], [ 106.6830243, 10.7849612 ], [ 106.6837095, 10.7846444 ], [ 106.6845295, 10.7843713 ], [ 106.6836439, 10.7825058 ], [ 106.6816899, 10.77839 ], [ 106.681665, 10.7783196 ], [ 106.6816513, 10.7782538 ], [ 106.6816399, 10.7781731 ], [ 106.6816355, 10.7780916 ], [ 106.681639, 10.7780014 ], [ 106.6816513, 10.7779119 ], [ 106.6816674, 10.7778253 ], [ 106.6816868, 10.7777538 ], [ 106.6817307, 10.7776174 ], [ 106.6818104, 10.7774595 ], [ 106.6827966, 10.7758944 ], [ 106.6828902, 10.7759737 ], [ 106.6837508, 10.776703 ], [ 106.6852506, 10.7758934 ], [ 106.6856415, 10.7756824 ], [ 106.6868564, 10.7750267 ], [ 106.6882402, 10.7742797 ], [ 106.6894575, 10.7736226 ], [ 106.6905661, 10.7748277 ], [ 106.6930249, 10.7774849 ], [ 106.6939511, 10.7784635 ], [ 106.6950078, 10.77958 ], [ 106.6981274, 10.7828849 ], [ 106.6970435, 10.7838172 ], [ 106.6959855, 10.7846839 ], [ 106.6937476, 10.7864709 ], [ 106.6919922, 10.7878726 ], [ 106.6908273, 10.7888038 ], [ 106.6901643, 10.7893349 ], [ 106.689793, 10.7896323 ], [ 106.6897055, 10.7897014 ], [ 106.6896856, 10.7897171 ], [ 106.6895735, 10.7898087 ], [ 106.6893447, 10.7899889 ], [ 106.6883591, 10.7907767 ], [ 106.6877188, 10.7912886 ], [ 106.6875146, 10.7914471 ], [ 106.6866889, 10.7920879 ], [ 106.6861498, 10.7925061 ], [ 106.6860645, 10.7924021 ], [ 106.6859844, 10.7923285 ], [ 106.6858743, 10.79227 ], [ 106.6857326, 10.7922396 ], [ 106.6855707, 10.7922353 ], [ 106.6851778, 10.7923033 ], [ 106.6846537, 10.792394 ], [ 106.6843412, 10.792439 ], [ 106.6839467, 10.7924625 ], [ 106.6835234, 10.7924087 ], [ 106.6834065, 10.7923741 ], [ 106.683071, 10.7922746 ], [ 106.6829744, 10.792226 ], [ 106.6825809, 10.7920281 ], [ 106.6822586, 10.791826 ], [ 106.6820491, 10.7916575 ], [ 106.6819614, 10.7915707 ], [ 106.6817327, 10.791323 ], [ 106.681669, 10.7912391 ], [ 106.681572, 10.7910673 ], [ 106.6814748, 10.7907931 ], [ 106.681447, 10.7905571 ], [ 106.681428, 10.7903258 ], [ 106.6814225, 10.7900476 ], [ 106.6814786, 10.7892197 ], [ 106.6815072, 10.7890298 ], [ 106.681574, 10.7888636 ], [ 106.6817106, 10.7887282 ], [ 106.6818928, 10.7886336 ], [ 106.6820761, 10.7885958 ], [ 106.6823716, 10.7885949 ], [ 106.6828078, 10.7885935 ], [ 106.6829195, 10.7885742 ], [ 106.6830236, 10.7885562 ], [ 106.6832048, 10.7884676 ], [ 106.6833445, 10.7883524 ], [ 106.6834669, 10.7882197 ], [ 106.6835369, 10.7880494 ], [ 106.6835636, 10.7878491 ], [ 106.6835615, 10.7877676 ], [ 106.6835483, 10.7872648 ], [ 106.6835092, 10.7871063 ], [ 106.6834273, 10.7869676 ], [ 106.6833097, 10.7868341 ], [ 106.6831609, 10.7867585 ], [ 106.6830935, 10.7867242 ], [ 106.6825999, 10.7865921 ], [ 106.6820792, 10.7864193 ], [ 106.681661, 10.7862118 ], [ 106.6813775, 10.7860022 ], [ 106.6812982, 10.7859266 ] ] ] } }
]
}
